{
    "links": {
        "self": "http://www.neowsapp.com/rest/v1/neo/3760590?api_key=iIulBulltgU6a56xZRHN4H3l9WmuAYTsLGpBGhQ2"
    },
    "id": "3760590",
    "neo_reference_id": "3760590",
    "name": "(2016 TQ18)",
    "designation": "2016 TQ18",
    "nasa_jpl_url": "http://ssd.jpl.nasa.gov/sbdb.cgi?sstr=3760590",
    "absolute_magnitude_h": 26.4,
    "estimated_diameter": {
        "kilometers": {
            "estimated_diameter_min": 0.0139493823,
            "estimated_diameter_max": 0.0311917671
        },
        "meters": {
            "estimated_diameter_min": 13.9493822934,
            "estimated_diameter_max": 31.1917670523
        },
        "miles": {
            "estimated_diameter_min": 0.0086677416,
            "estimated_diameter_max": 0.0193816595
        },
        "feet": {
            "estimated_diameter_min": 45.7656914036,
            "estimated_diameter_max": 102.3351970157
        }
    },
    "is_potentially_hazardous_asteroid": false,
    "close_approach_data": [
        {
            "close_approach_date": "2012-11-04",
            "close_approach_date_full": "2012-Nov-04 23:28",
            "epoch_date_close_approach": 1352071680000,
            "relative_velocity": {
                "kilometers_per_second": "21.7175043543",
                "kilometers_per_hour": "78183.0156754922",
                "miles_per_hour": "48579.8854901413"
            },
            "miss_distance": {
                "astronomical": "0.4313144973",
                "lunar": "167.7813394497",
                "kilometers": "64523730.096200751",
                "miles": "40093186.7360063238"
            },
            "orbiting_body": "Earth"
        },
        {
            "close_approach_date": "2016-10-02",
            "close_approach_date_full": "2016-Oct-02 12:32",
            "epoch_date_close_approach": 1475411520000,
            "relative_velocity": {
                "kilometers_per_second": "9.7217646349",
                "kilometers_per_hour": "34998.3526857644",
                "miles_per_hour": "21746.6153118851"
            },
            "miss_distance": {
                "astronomical": "0.032118283",
                "lunar": "12.494012087",
                "kilometers": "4804826.72485721",
                "miles": "2985580.883601098"
            },
            "orbiting_body": "Earth"
        },
        {
            "close_approach_date": "2020-07-27",
            "close_approach_date_full": "2020-Jul-27 02:51",
            "epoch_date_close_approach": 1595818260000,
            "relative_velocity": {
                "kilometers_per_second": "13.1647689729",
                "kilometers_per_hour": "47393.1683026092",
                "miles_per_hour": "29448.2717155851"
            },
            "miss_distance": {
                "astronomical": "0.1523907003",
                "lunar": "59.2799824167",
                "kilometers": "22797324.172688361",
                "miles": "14165600.3732909418"
            },
            "orbiting_body": "Earth"
        },
        {
            "close_approach_date": "2024-07-04",
            "close_approach_date_full": "2024-Jul-04 19:00",
            "epoch_date_close_approach": 1720119600000,
            "relative_velocity": {
                "kilometers_per_second": "22.8309182687",
                "kilometers_per_hour": "82191.3057674118",
                "miles_per_hour": "51070.4810753121"
            },
            "miss_distance": {
                "astronomical": "0.469170514",
                "lunar": "182.507329946",
                "kilometers": "70186909.56120518",
                "miles": "43612123.280304284"
            },
            "orbiting_body": "Earth"
        },
        {
            "close_approach_date": "2122-07-04",
            "close_approach_date_full": "2122-Jul-04 20:44",
            "epoch_date_close_approach": 4812641040000,
            "relative_velocity": {
                "kilometers_per_second": "22.4627207521",
                "kilometers_per_hour": "80865.7947075892",
                "miles_per_hour": "50246.8600503906"
            },
            "miss_distance": {
                "astronomical": "0.4294258671",
                "lunar": "167.0466623019",
                "kilometers": "64241195.041063077",
                "miles": "39917627.5935293826"
            },
            "orbiting_body": "Earth"
        }
    ],
    "orbital_data": {
        "orbit_id": "7",
        "orbit_determination_date": "2017-04-06 08:23:11",
        "first_observation_date": "2016-10-06",
        "last_observation_date": "2016-11-05",
        "data_arc_in_days": 30,
        "observations_used": 35,
        "orbit_uncertainty": "7",
        "minimum_orbit_intersection": ".00882092",
        "jupiter_tisserand_invariant": "3.189",
        "epoch_osculation": "2459000.5",
        "eccentricity": ".6010794711163872",
        "semi_major_axis": "2.497651821292994",
        "inclination": "3.602695015361491",
        "ascending_node_longitude": "7.089886082413663",
        "orbital_period": "1441.770953168913",
        "perihelion_distance": ".9963645855173201",
        "perihelion_argument": "339.2972735443355",
        "aphelion_distance": "3.998939057068668",
        "perihelion_time": "2459086.786762619531",
        "mean_anomaly": "338.4548062403697",
        "mean_motion": ".249692920507758",
        "equinox": "J2000",
        "orbit_class": {
            "orbit_class_type": "APO",
            "orbit_class_description": "Near-Earth asteroid orbits which cross the Earth’s orbit similar to that of 1862 Apollo",
            "orbit_class_range": "a (semi-major axis) > 1.0 AU; q (perihelion) < 1.017 AU"
        }
    },
    "is_sentry_object": false
}